#dP2023  5 14 12  0  0.00000000      96 __u+U ITR00 EXT  IAC
## 2262  43200.00000000   900.00000000 60078 0.5000000000000
+  118   C06C07C08C09C10C11C12C13C14C16C19C20C21C22C23C24C25
+        C26C27C28C29C30C32C33C34C35C36C37C38C39C40C41C42C43
+        C44C45C46E02E04E05E07E08E09E10E11E12E13E14E15E18E19
+        E21E24E25E26E27E30E31E33E34E36G01G02G03G04G05G06G07
+        G08G09G10G11G12G13G14G15G16G17G18G19G20G21G22G23G24
+        G25G26G27G28G29G30G31G32J02J03J04R01R02R03R04R05R07
+        R08R09R11R12R13R14R15R16R17R18R19R20R21R22R24R25  0
++         9  9 10  9  9 10 10 10  9  9  9  8  9 10  8  8  8
++        10  7  9  8 10  9  8  9  8  8  9  9 10 11  7  8  8
++         8  8  8  7  7  8  8  7  8  8  7  8  7  8  8  8  7
++         8  8  7  8  8  8  9  8  7  7  8  7  8  7  7  7  8
++         7  7  7 10  8  8  7  8  8  8  7  7  7  8  8  7  8
++         8  8  7  7  8  9  7  7  9  9 10  8  9  8  7  7  8
++         8  9  8  9  9  9 10  8  8  8  8 10  9  8  8  8  0
%c M  cc GPS ccc cccc cccc cccc cccc ccccc ccccc ccccc ccccc
%c cc cc ccc ccc cccc cccc cccc cccc ccccc ccccc ccccc ccccc
%f  0.0000000  0.000000000  0.00000000000  0.000000000000000
%f  0.0000000  0.000000000  0.00000000000  0.000000000000000
%i    0    0    0    0      0      0      0      0         0
%i    0    0    0    0      0      0      0      0         0
/* IAC                                ULTRA-RAPID PREDICTION
/* S/V CLOCKS ARE ALIGNED TO GNSS TIME                      
/* G:C1WC2W R:C1PC2P E:C1XC5X C:C2IC6I J:C1CC2S             
/* PCV:IGS20_2247 OL/AL:FES2004  NONE     YN ORB:CoN CLK:CoN
*  2023 05 14 15  0  0.00000000
PC06  -3291.413002  38529.121902  17173.530358   -191.301587
PC07 -11033.610191  25562.254700 -31648.772261    -17.877271
PC08 -19232.974484  33448.931922  16793.001605    485.544935
PC09   2065.665696  41623.401588   8565.401514    654.596729
PC10  -1541.485962  27116.097001 -31940.035088    -58.222591
PC11  18113.110303   9450.745520  19060.763209    618.908491
PC12  13964.338593  23860.468914   3805.542553    638.717876
PC13 -12102.966899  33553.227317  22438.138037    274.453047
PC14  27599.042087   3211.469964   2215.758562    258.805654
PC16  -5623.240559  36606.993927  20667.601321     78.595753
PC19 -26797.947756   3230.097274   7173.870780   -910.131754
PC20 -24942.291089  -8098.543154  -9579.848388    568.332851
PC21   7714.202396  15470.106772  21919.960430   -914.710601
PC22 -13345.827149  13245.820338  20634.494471   -488.722899
PC23  15662.797516 -23094.197219   -278.182343   -928.459832
PC24  13148.087172   9690.021461 -22636.543267    -55.367884
PC25  20304.862333 -10990.921092 -15694.824427    126.408925
PC26   -288.091192  22533.482326 -16452.003992   -120.201364
PC27  -9055.362243 -26004.913328   4459.442137    140.093845
PC28   4306.571614 -20556.711012  18374.446388    103.629860
PC29 -16530.593131   2201.705277 -22384.760047    120.291767
PC30 -18488.010678 -17196.758631 -11870.430818     -0.242576
PC32  -7816.756925 -15408.491482 -21898.261325   -562.543236
PC33  26785.207567  -3317.293486  -7036.354382   -881.638065
PC34  18742.291538  16169.089690  12891.601724    170.551032
PC35  -4191.754608  20260.597712 -18760.930941    627.668590
PC36 -20510.082172   9782.366999  16220.015140   -442.180576
PC37   1849.684324 -23060.676777  15633.142849   -784.359650
PC38 -23520.235443  33878.936783   8470.454657     78.315592
PC39  -7256.788203  33410.355452  24880.614791     -2.927901
PC40 -15257.227398  19138.389902 -34386.543659    -23.175629
PC41  13960.384426 -13064.665151 -20264.861763   -945.017089
PC42  24129.348104   8883.926627  10854.195299   -692.375393
PC43  16971.800726  -1273.647452  22104.895637     21.375924
PC44   9838.347372  25714.542994  -4675.414498    106.413558
PC45 -15422.264061  23244.424168   -175.021828    -97.487325
PC46 -14010.749424  -8162.863695  22710.405435    -53.989335
PE02 -27303.301712  11340.932132   1287.824473     38.092580
PE04   3936.659226 -17495.105513 -23536.851610   -122.156455
PE05 -25798.586731 -13318.089820   5787.554534    -67.531768
PE07  15411.311726  21863.049787  12675.154721    -45.008605
PE08  -4150.522759  17227.875317  23714.658476    -82.926447
PE09 -15380.068107 -21792.629197 -12841.647349    -14.476958
PE10   1283.702406 -29497.175189  -2112.122511   -533.673562
PE11  -5456.400323 -26410.265323 -12195.766804   1921.815459
PE12   7358.889191 -27700.938988   7338.406694   -538.358929
PE13   4964.512550  26824.563210  11499.928797    -19.163352
PE14  20154.670743  11294.877212   5660.254685    224.963042
PE15  -7491.389619  27589.918302  -7694.868058    -21.733138
PE18 -27720.244238  -8987.956113 -14179.502199     63.195486
PE19  22271.576027   -705.332834 -19471.233143  -2535.716384
PE21  23784.781234   2344.863182 -17466.208311   -529.063997
PE24  -5490.280763 -15908.771543  24334.720359    -98.411949
PE25 -23585.557583  -2607.805796  17695.483264   -605.045944
PE26  14723.471240   9540.674369  23838.808501    104.019480
PE27   6350.282448  15495.973446 -24407.229579    -49.304051
PE30 -15206.191065  19308.366914 -16500.363663   -172.387717
PE31  14645.178238 -19390.185563  16907.675513   -523.730130
PE33  15427.203776 -12048.538786  22196.699486   -444.474398
PE34 -15385.884766  12244.942079 -22135.187981    -45.380722
PE36 -14362.943898 -10346.137328 -23725.201294    -56.003858
PG01  13306.940889 -15534.216927  16406.219934    185.402895
PG02  11373.016604  16856.392147  17840.915558   -596.281943
PG03  22354.499158 -13142.547662  -5568.972811   -303.474676
PG04  13676.498560  -7953.006960 -21337.046869     41.298655
PG05 -24300.548897   3195.587964 -10555.141659   -127.168258
PG06  -6031.077557 -21737.782744 -13879.101753    588.052766
PG07   6238.625554 -25194.871515  -3762.052655    178.399147
PG08  21650.427713   2495.849945  15375.683885   -122.387294
PG09   3376.455991 -15976.419926 -21009.797085   -158.999652
PG10   4217.491528  14347.389566  22114.361588    -36.891556
PG11 -13400.817022  -8473.750170 -21307.912440   -196.640443
PG12 -24231.437343  10338.700421  -3263.688665   -375.943039
PG13 -21458.404394 -11214.841017  10976.696430    519.844714
PG14   -593.656456 -15980.289597  21197.529634     56.665723
PG15 -21679.562120    474.645136  15051.880208     39.478409
PG16  23454.011459   2184.777170 -13009.099042   -501.065644
PG17 -10026.403406 -20885.122491  13322.266483    714.761120
PG18  -4707.972405  26038.097407   -921.605074   -265.981679
PG19 -16681.269547 -20328.705618   4514.427348    316.802565
PG20 -19677.084320  -2587.595404 -17524.087437    433.622216
PG21  15205.707955  -5921.426561  21344.538754    153.826402
PG22  18376.320040  19193.870966   2446.907573    481.193518
PG23  -9079.107219  17321.818851  17904.375144     24.157852
PG24 -14356.238144  11537.122940  18632.674467   -188.446925
PG25 -16293.785542  16704.391916 -12747.286426    442.766721
PG26  14783.162576   9369.698305 -20179.296100    240.802065
PG27  22903.771721  12335.312738   6100.443751     37.655445
PG28   6135.653021  22864.608506 -12071.233879     77.462526
PG29  -7348.628994  13271.242584 -21850.421134   -599.384847
PG30  -1270.196765 -25547.599549   6724.823708   -517.223771
PG31  11521.302856  14249.372169 -19249.541157   -216.092314
PG32  13649.070267  20145.359656  11060.753758   -476.320441
PJ02 -35330.274255  19805.118637  -7192.850799      0.029854
PJ03 -19862.647547  27386.492598 -20582.288881      4.132925
PJ04 -28860.480538  27777.811532  19378.572942     94.540351
PR01 -18694.684168 -10840.270903 -13559.321625     57.485733
PR02 -24714.277459  -4248.027725   4543.525988    -22.837310
PR03 -16145.510003   5225.968719  19073.203437     77.808090
PR04   1077.821197  11289.717342  22882.904636    187.153021
PR05  17743.735251  11524.835041  14280.118619    112.544346
PR07  15569.348168  -5514.989961 -19410.030971     55.895691
PR08  -1319.828236 -11394.671243 -22716.660352    -70.778547
PR09  17367.655246  -6011.786572 -17631.162009    120.128478
PR11   9662.794018 -19481.755681  13328.580255    -55.800705
PR12  -6090.101158  -9495.541259  22903.589787     27.259638
PR13 -16549.353692   4416.482149  18887.935571    -35.034123
PR14 -18309.986649  17605.248159   2468.587001     24.669647
PR15  -8917.625628  19174.343888 -14250.657232     89.357257
PR16   5758.927516   9616.854020 -22906.076423     14.554138
PR17  -6400.996690  12827.116680 -21087.638449    629.909377
PR18   2113.871445  23760.488373  -9102.867477     81.483765
PR19   8359.709913  23281.293983   6222.228631   -232.588942
PR20  11535.530045   7103.610824  21625.289823    -92.848223
PR21   5685.477578 -14220.050195  20399.610725     -7.411655
PR22  -1599.750396 -24097.582416   8208.044267     81.704205
PR24 -12124.170823  -5898.528916 -21645.756760    170.277132
PR25   7315.645276 -12476.992190  21016.432117     61.129254
EOF
